satname,norad_id,inclination_deg,eccentricity,mean_motion_rev_per_day,perigee_km,apogee_km,l1,l2
STARLINK-1541,46052,53.1591,0.0001885,15.75528945,341.85946993275047,344.3933862451395,1 46052U 20055AB  26128.91668980  .00379748  00000+0  23422-2 0  9997,2 46052  53.1591 188.2977 0001885  66.1489 115.6426 15.75528945  5776
STARLINK-1543,46053,53.1597,0.0001374,15.31702311,469.792071510964,471.67414101616487,1 46053U 20055AC  26128.49108678  .00000464  00000+0  26710-4 0  9995,2 46053  53.1597 195.9532 0001374  65.0581 295.0563 15.31702311318235
STARLINK-1548,46054,53.1595,0.0001265,15.31684088,469.92103954008417,471.65381742048976,1 46054U 20055AD  26128.50509441  .00001825  00000+0  70579-4 0  9995,2 46054  53.1595 195.9625 0001265  94.8566 265.2580 15.31684088318237
STARLINK-1554,46055,53.158,0.000135,15.31723433,469.745554598152,471.5947325269135,1 46055U 20055AE  26128.48641434  .00005591  00000+0  19166-3 0  9990,2 46055  53.1580 195.9931 0001350  84.2018 275.9138 15.31723433318237
STARLINK-1564,46058,53.1592,0.0001164,15.30195281,474.4314277179592,476.0268913599002,1 46058U 20055AH  26128.51128586  .00000212  00000+0  19278-4 0  9995,2 46058  53.1592 196.5013 0001164  92.7133 267.4001 15.30195281318223
STARLINK-1570,46059,53.1593,0.0001246,15.31708983,469.8598507638535,471.56658423805493,1 46059U 20055AJ  26128.44912316  .00001163  00000+0  49209-4 0  9993,2 46059  53.1593 196.0515 0001246  86.9158 273.1986 15.31708983318181
STARLINK-1572,46060,53.1602,0.000138,15.30187928,474.30534691250614,476.1968820320999,1 46060U 20055AK  26128.42697448  .00000400  00000+0  25633-4 0  9997,2 46060  53.1602 196.6410 0001380  98.8048 261.3109 15.30187928318188
STARLINK-1573,46061,53.1578,0.0001255,15.3169169,469.90522984346626,471.6243041869866,1 46061U 20055AL  26128.50038800 -.00001414  00000+0 -33817-4 0  9999,2 46061  53.1578 195.7784 0001255  92.9984 267.1161 15.31691690318235
STARLINK-1577,46063,53.1591,0.0001112,15.3170885,469.952021774915,471.47520615146095,1 46063U 20055AN  26128.46310032  .00000083  00000+0  14434-4 0  9999,2 46063  53.1591 195.9472 0001112  69.7127 290.3994 15.31708850318229
STARLINK-1583,46064,53.1587,0.0001686,15.30202222,474.0529608955403,476.36390897620095,1 46064U 20055AP  26128.65237134  .00003022  00000+0  11412-3 0  9990,2 46064  53.1587 195.3437 0001686  70.5733 289.5450 15.30202222318249
STARLINK-1536,46070,53.1604,0.0001251,15.31698597,469.8873824635284,471.60097253413915,1 46070U 20055AV  26128.86994811  .00002184  00000+0  82129-4 0  9994,2 46070  53.1604 181.9411 0001251  67.7473 292.3661 15.31698597318450
STARLINK-1542,46073,53.1568,9.64e-05,15.29335312,477.137176169188,478.45900045421513,1 46073U 20055AY  26128.91668980  .00007197  00000+0  26166-3 0  9995,2 46073  53.1568 184.6196 0000964  60.6031 100.3507 15.29335312  5634
STARLINK-1549,46074,53.0499,0.0003478,15.27340357,481.3801970854274,486.1533373459015,1 46074U 20055AZ  26128.85021462  .00034149  00000+0  12655-2 0  9991,2 46074  53.0499 181.7656 0003478  18.7912 341.3214 15.27340357318431
STARLINK-1551,46075,53.1601,0.0001124,15.30197414,474.452473119587,475.9931084005493,1 46075U 20055BA  26128.43690890  .00008370  00000+0  29442-3 0  9993,2 46075  53.1601 183.5420 0001124  89.6073 270.5057 15.30197414318388
STARLINK-1552,46076,53.158,0.0001262,15.30197824,474.35667271969487,476.08646042189775,1 46076U 20055BB  26128.84564226  .00006490  00000+0  23106-3 0  9994,2 46076  53.1580 181.5580 0001262  95.3521 264.7623 15.30197824318430
STARLINK-1559,46077,53.0227,0.0002849,15.35595563,457.2041370649795,461.1000243831759,1 46077U 20055BC  26128.48829863  .00047231  00000+0  13478-2 0  9994,2 46077  53.0227 154.2774 0002849   4.0872 356.0152 15.35595563318752
STARLINK-1566,46079,53.1598,0.0001141,15.31708581,469.9329618840393,471.4958697771317,1 46079U 20055BE  26128.85154786 -.00003500  00000+0 -10103-3 0  9998,2 46079  53.1598 181.3968 0001141  89.0595 271.0537 15.31708581318453
STARLINK-1568,46080,53.0586,0.0004764,15.51589732,408.84914889767333,415.31887147618,1 46080U 20055BF  26128.43414258  .00038393  00000+0  64089-3 0  9995,2 46080  53.0586 106.7941 0004764   5.3864 354.7195 15.51589732319454
STARLINK-1578,46082,53.1582,0.0001538,15.31719733,469.6278245760004,471.734521045958,1 46082U 20055BH  26128.85595000  .00001840  00000+0  71007-4 0  9994,2 46082  53.1582 181.8941 0001538  52.0862 308.0278 15.31719733318446
STARLINK-1579,46083,53.1607,9.86e-05,15.31697435,470.0723413422065,471.4229413934845,1 46083U 20055BJ  26128.84223757  .00000518  00000+0  28456-4 0  9992,2 46083  53.1607 181.4910 0000986  69.9152 290.1956 15.31697435318440
STARLINK-1622,46128,53.0194,0.000329,15.76129945,339.206979265502,343.6284462665026,1 46128U 20057M   26128.72911961  .00117188  00000+0  72888-3 0  9991,2 46128  53.0194 287.1852 0003290 330.1976  29.8855 15.76129945316793
STARLINK-1623,46129,53.046,7.66e-05,15.68872123,361.6091965961423,362.64180481125095,1 46129U 20057N   26127.96381899  .00083789  00000+0  71363-3 0  9994,2 46129  53.0460 327.2533 0000766 235.5418 124.5526 15.68872123316170
STARLINK-1624,46130,53.0319,0.0008619,15.95290063,281.7611596100469,293.2513954918895,1 46130U 20057P   26128.91668980  .00502068  11359-3  12454-2 0  9995,2 46130  53.0319 290.4982 0008619 276.3746 101.9676 15.95290063  6017
STARLINK-1596,46141,53.0392,0.0002736,15.54650562,401.31322755680776,405.02395797717054,1 46141U 20057AA  26128.46825851  .00095735  00000+0  14106-2 0  9990,2 46141  53.0392 304.0251 0002736 270.4878  89.5818 15.54650562316546
STARLINK-1597,46142,53.0456,0.0002551,15.68740937,360.7817283916802,364.22080203459063,1 46142U 20057AB  26128.82669100  .00082861  00000+0  70961-3 0  9992,2 46142  53.0456   2.6768 0002551  63.7515 296.3763 15.68740937315747
STARLINK-1606,46144,53.0397,0.0003614,15.79045744,330.71767812580856,335.56859140721826,1 46144U 20057AD  26128.91668980  .00079004  00000+0  43468-3 0  9996,2 46144  53.0397 318.0768 0003614 221.6780  87.6597 15.79045744  5970
STARLINK-1608,46146,53.1604,0.0001575,15.33394069,464.6168100005343,466.7726169902853,1 46146U 20057AF  26128.43625454  .00051159  00000+0  15639-2 0  9993,2 46146  53.1604  31.3985 0001575 172.3253 187.7773 15.33394069315330
STARLINK-1667,46155,53.016,0.0005387,15.78689719,330.53620216451964,337.7680224541209,1 46155U 20057AQ  26128.91668980  .00170921  00000+0  94069-3 0  9991,2 46155  53.0160 286.3137 0005387 323.9877 343.1581 15.78689719  5876
